{
  "type": "FeatureCollection",
  "name": "SCHOOL_POINT",
  "crs": {"type": "name", "properties": {"name": "urn:ogc:def:crs:OGC:1.3:CRS84"}},
  "features": [
    {
      "type": "Feature",
      "properties": {
        "MARKID": "SCHOOL00001",
        "TERRAINID": "9920103",
        "MARKNAME1": "NMA示範小學A"
      },
      "geometry": {"type": "Point", "coordinates": [121.0219, 24.7762]}
    },
    {
      "type": "Feature",
      "properties": {
        "MARKID": "SCHOOL00002",
        "TERRAINID": "9920103",
        "MARKNAME1": "NMA示範小學B"
      },
      "geometry": {"type": "Point", "coordinates": [121.0256, 24.7751]}
    },
    {
      "type": "Feature",
      "properties": {
        "MARKID": "SCHOOL00003",
        "TERRAINID": "9920103",
        "MARKNAME1": "NMA示範小學C"
      },
      "geometry": {"type": "Point", "coordinates": [121.0238, 24.7729]}
    }
  ]
}
