{
  "type": "FeatureCollection",
  "name": "RIVERL",
  "nma:layer": "RIVERL",
  "nma:crs": "EPSG:3826",
  "nma:fields": [
    {
      "name": "RIVERLID",
      "type": "String",
      "width": 11,
      "nullable": true,
      "uniqueConstraint": false
    },
    {
      "name": "TERRAINID",
      "type": "String",
      "width": 8,
      "nullable": true,
      "uniqueConstraint": false
    },
    {
      "name": "RIVERLCODE",
      "type": "String",
      "width": 30,
      "nullable": true,
      "uniqueConstraint": false
    },
    {
      "name": "RIVERLNAME",
      "type": "String",
      "width": 60,
      "nullable": true,
      "uniqueConstraint": false
    }
  ],
  "features": [
    {
      "type": "Feature",
      "properties": {
        "RIVERLID": "J0000000001",
        "TERRAINID": "9510101",
        "RIVERLCODE": null,
        "RIVERLNAME": "示範河川"
      },
      "fid": 0,
      "geometry": {
        "type": "LineString",
        "coordinates": [
          [
            250000.0,
            2740000.0
          ],
          [
            250100.0,
            2740050.0
          ],
          [
            250200.0,
            2740100.0
          ]
        ]
      }
    },
    {
      "type": "Feature",
      "properties": {
        "RIVERLID": null,
        "TERRAINID": "9999999",
        "RIVERLCODE": null,
        "RIVERLNAME": "示範排水"
      },
      "fid": 1,
      "geometry": {
        "type": "LineString",
        "coordinates": [
          [
            250000.0,
            2739900.0
          ],
          [
            250100.0,
            2739950.0
          ],
          [
            250200.0,
            2739990.0
          ]
        ]
      }
    },
    {
      "type": "Feature",
      "properties": {
        "RIVERLID": "J0000000003",
        "TERRAINID": "9510106",
        "RIVERLCODE": null,
        "RIVERLNAME": "示範溝渠"
      },
      "fid": 2,
      "geometry": {
        "type": "LineString",
        "coordinates": [
          [
            250000.0,
            2739800.0
          ],
          [
            250200.0,
            2740000.0
          ],
          [
            250000.0,
            2740000.0
          ],
          [
            250200.0,
            2739800.0
          ]
        ]
      }
    }
  ]
}
