{"features":[{"geometry":{"coordinates":[121.564468,25.033964],"type":"Point"},"id":"hydrant-research-001","properties":{"authoritative_render":false,"feature_identity":"hydrant-research-001","nma_classification":"9350906","nma_portrayal":{"color_code":"7","line_code":"2","observed_color":"black","physical_profile":null},"product_layer":null,"proposal_hash":"0921d3542dda5570ad7017e0377d6627cde241289ab523ee2073aec789b32e93","source_authority_evidence_bound":true,"source_claim":"research fixture derived without authoritative source mutation"},"type":"Feature"}],"name":"rq2-symbolic-derived-fire-hydrant","type":"FeatureCollection"}
