{"features":[{"geometry":{"coordinates":[121.564468,25.033964],"type":"Point"},"id":"hydrant-research-001","properties":{"authoritative_render":false,"feature_identity":"hydrant-research-001","nma_classification":"9350906","nma_portrayal":{"color_code":"7","line_code":"2","observed_color":"black","physical_profile":null},"product_layer":null,"proposal_hash":"c3f64ffa27ad84e363540bccdeca8d53a991b83f30fea15e4a47fe711851522f","source_authority_evidence_bound":true,"source_claim":"research fixture derived without authoritative source mutation"},"type":"Feature"}],"name":"rq2-symbolic-derived-fire-hydrant","type":"FeatureCollection"}
